{
    "links": {
        "self": "http://www.neowsapp.com/rest/v1/neo/3444553?api_key=iIulBulltgU6a56xZRHN4H3l9WmuAYTsLGpBGhQ2"
    },
    "id": "3444553",
    "neo_reference_id": "3444553",
    "name": "(2009 BH11)",
    "designation": "2009 BH11",
    "nasa_jpl_url": "http://ssd.jpl.nasa.gov/sbdb.cgi?sstr=3444553",
    "absolute_magnitude_h": 26.4,
    "estimated_diameter": {
        "kilometers": {
            "estimated_diameter_min": 0.0139493823,
            "estimated_diameter_max": 0.0311917671
        },
        "meters": {
            "estimated_diameter_min": 13.9493822934,
            "estimated_diameter_max": 31.1917670523
        },
        "miles": {
            "estimated_diameter_min": 0.0086677416,
            "estimated_diameter_max": 0.0193816595
        },
        "feet": {
            "estimated_diameter_min": 45.7656914036,
            "estimated_diameter_max": 102.3351970157
        }
    },
    "is_potentially_hazardous_asteroid": false,
    "close_approach_data": [
        {
            "close_approach_date": "2007-03-20",
            "close_approach_date_full": "2007-Mar-20 23:07",
            "epoch_date_close_approach": 1174432020000,
            "relative_velocity": {
                "kilometers_per_second": "4.3864675332",
                "kilometers_per_hour": "15791.2831194979",
                "miles_per_hour": "9812.0892250014"
            },
            "miss_distance": {
                "astronomical": "1.6422785546",
                "lunar": "638.8463577394",
                "kilometers": "245681373.714838702",
                "miles": "152659326.7193580076"
            },
            "orbiting_body": "Juptr"
        },
        {
            "close_approach_date": "2009-01-23",
            "close_approach_date_full": "2009-Jan-23 21:08",
            "epoch_date_close_approach": 1232744880000,
            "relative_velocity": {
                "kilometers_per_second": "13.819857154",
                "kilometers_per_hour": "49751.4857543845",
                "miles_per_hour": "30913.638467773"
            },
            "miss_distance": {
                "astronomical": "0.006013424",
                "lunar": "2.339221936",
                "kilometers": "899595.42180688",
                "miles": "558982.674739744"
            },
            "orbiting_body": "Moon"
        },
        {
            "close_approach_date": "2009-01-24",
            "close_approach_date_full": "2009-Jan-24 01:51",
            "epoch_date_close_approach": 1232761860000,
            "relative_velocity": {
                "kilometers_per_second": "13.0434691554",
                "kilometers_per_hour": "46956.488959269",
                "miles_per_hour": "29176.936153608"
            },
            "miss_distance": {
                "astronomical": "0.0047230417",
                "lunar": "1.8372632213",
                "kilometers": "706556.978241179",
                "miles": "439034.1479951102"
            },
            "orbiting_body": "Earth"
        }
    ],
    "orbital_data": {
        "orbit_id": "10",
        "orbit_determination_date": "2017-04-06 09:01:34",
        "first_observation_date": "2009-01-26",
        "last_observation_date": "2009-02-05",
        "data_arc_in_days": 10,
        "observations_used": 20,
        "orbit_uncertainty": "8",
        "minimum_orbit_intersection": ".00412538",
        "jupiter_tisserand_invariant": "3.201",
        "epoch_osculation": "2454861.5",
        "eccentricity": ".6426554593869255",
        "semi_major_axis": "2.411568155133781",
        "inclination": ".4430823503614139",
        "ascending_node_longitude": "156.6991872747666",
        "orbital_period": "1367.879173823652",
        "perihelion_distance": ".8617607145534008",
        "perihelion_argument": "280.0309753999479",
        "aphelion_distance": "3.961375595714161",
        "perihelion_time": "2454822.774226985851",
        "mean_anomaly": "10.19189307935977",
        "mean_motion": ".2631811397447384",
        "equinox": "J2000",
        "orbit_class": {
            "orbit_class_type": "APO",
            "orbit_class_description": "Near-Earth asteroid orbits which cross the Earth’s orbit similar to that of 1862 Apollo",
            "orbit_class_range": "a (semi-major axis) > 1.0 AU; q (perihelion) < 1.017 AU"
        }
    },
    "is_sentry_object": false
}